STARLINK-4687           
1 53784U 22111M   26068.87525010  .00000174  00000+0  29043-4 0  9997
2 53784  53.2170 273.3260 0001240  81.8434 278.2699 15.08832094193720
SEDNA-2                 
1 63153U 25009DQ  26068.79893845  .00008085  00000+0  49393-3 0  9990
2 63153  97.4615 144.8075 0010309  53.0260 307.1912 15.10492622 63116
